[{"OBJECT_NAME":"TIANMU-1 20","OBJECT_ID":"2023-208B","EPOCH":"2026-03-09T21:50:45.859200","MEAN_MOTION":15.31029249,"ECCENTRICITY":0.00061925,"INCLINATION":97.4323,"RA_OF_ASC_NODE":185.4313,"ARG_OF_PERICENTER":324.1763,"MEAN_ANOMALY":35.9062,"EPHEMERIS_TYPE":0,"CLASSIFICATION_TYPE":"U","NORAD_CAT_ID":58661,"ELEMENT_SET_NO":999,"REV_AT_EPOCH":12222,"BSTAR":0.0003681641,"MEAN_MOTION_DOT":0.00010969,"MEAN_MOTION_DDOT":0},{"OBJECT_NAME":"STARLINK-34251","OBJECT_ID":"2025-117C","EPOCH":"2026-03-09T05:45:20.714112","MEAN_MOTION":15.30197405,"ECCENTRICITY":0.00011356,"INCLINATION":53.1616,"RA_OF_ASC_NODE":41.9196,"ARG_OF_PERICENTER":108.161,"MEAN_ANOMALY":251.9514,"EPHEMERIS_TYPE":0,"CLASSIFICATION_TYPE":"U","NORAD_CAT_ID":64205,"ELEMENT_SET_NO":999,"REV_AT_EPOCH":4445,"BSTAR":0.00085047229,"MEAN_MOTION_DOT":0.00024912,"MEAN_MOTION_DDOT":0}]
